0 ATLAS CENTAUR R/B
1 08621U 76010B   13281.80972470 -.00000151  00000-0  28172-3 0  7879
2 08621 021.5631 258.3423 7191755 297.1780 319.1881 02.20571864186374
0 ATLAS CENTAUR R/B
1 08621U 76010B   13283.23172150  .00000034  00000-0  56768-3 0  7898
2 08621 021.5634 257.8570 7192773 298.0373 008.3236 02.20572375186406
0 ATLAS CENTAUR R/B
1 08621U 76010B   13285.95631002 -.00000196  00000-0  12546-2 0  7889
2 08621 021.5594 256.9151 7191324 299.7224 011.7900 02.20571512186464
0 ATLAS CENTAUR R/B
1 08621U 76010B   13288.15205053 -.00000205  00000-0  14710-2 0  7894
2 08621 021.5574 256.1608 7191096 301.0675 315.3159 02.20571906186516
0 ATLAS CENTAUR R/B
1 08621U 76010B   13290.43240211 -.00000207  00000-0  81971-3 0  7901
2 08621 021.5554 255.3782 7190807 302.4641 326.0295 02.20572692186563
0 ATLAS CENTAUR R/B
1 08621U 76010B   13294.53617363 -.00000238  00000-0 -79910-3 0  7918
2 08621 021.5513 253.9737 7190252 304.9722 344.6358 02.20574230186659
